OBJECT_NAME,OBJECT_ID,EPOCH,MEAN_MOTION,ECCENTRICITY,INCLINATION,RA_OF_ASC_NODE,ARG_OF_PERICENTER,MEAN_ANOMALY,EPHEMERIS_TYPE,CLASSIFICATION_TYPE,NORAD_CAT_ID,ELEMENT_SET_NO,REV_AT_EPOCH,BSTAR,MEAN_MOTION_DOT,MEAN_MOTION_DDOT
DUBAISAT-1,2009-041B,2026-06-20T08:16:47.847072,14.75126564,.0011555,98.0056,304.5680,64.7840,295.4565,0,U,35682,999,90556,.90158E-4,.558E-5,0
OCEANSAT-2,2009-051A,2026-06-21T11:43:43.395744,13.99663293,.0015564,98.2323,158.9111,222.9325,137.0628,0,U,35931,999,87993,-.11482E-3,-.206E-5,0
WORLDVIEW-2 (WV-2),2009-055A,2026-06-20T10:25:27.171264,14.37900227,.0003904,98.4736,244.8392,197.1110,162.9946,0,U,35946,999,87611,.39024E-4,.74E-6,0
SMOS,2009-059A,2026-06-20T10:56:22.909344,14.39774008,.0001324,98.4426,358.7428,87.9186,272.2154,0,U,36036,999,87392,.67815E-4,.169E-5,0
YAOGAN-7,2009-069A,2026-06-20T09:44:43.268640,14.78012533,.0025376,98.0068,57.2532,31.7797,328.4939,0,U,36110,999,89010,.54142E-4,.34E-5,0
TANDEM-X,2010-030A,2026-06-19T11:55:50.861280,15.19151444,.0001891,97.4451,178.1721,87.7400,272.4051,0,U,36605,999,88699,.12414064E-4,.194E-5,0
CARTOSAT-2B,2010-035A,2026-06-21T11:13:15.658176,14.78666375,.0011566,97.9947,222.9908,169.8570,190.2877,0,U,36795,999,86048,.81042E-4,.542E-5,0
YAOGAN-10,2010-038A,2026-06-21T13:04:23.714688,14.85360559,.0001741,97.8975,195.9149,85.2540,66.2465,0,U,36834,999,85785,.13987E-3,.1149E-4,0
COSMO-SKYMED 4,2010-060A,2026-06-21T11:51:54.952992,14.82157004,.0001447,97.8893,356.0310,86.3912,273.7467,0,U,37216,999,84520,.44605E-4,.303E-5,0
RESOURCESAT-2,2011-015A,2026-06-20T11:13:01.932672,14.21600287,.0010271,98.7643,238.8867,244.9511,115.0601,0,U,37387,999,78664,.2096E-4,.2E-7,0
HAIYANG-2A,2011-043A,2026-06-21T11:30:04.990752,13.74333314,.000581,99.3397,175.0606,82.6456,277.5353,0,U,37781,999,74724,.28474E-3,.225E-5,0
RASAT,2011-044D,2026-06-21T12:42:44.592192,14.68169242,.0020577,98.0574,263.8605,174.9075,196.0613,0,U,37791,999,79382,.47487E-4,.225E-5,0
SRMSAT,2011-058D,2026-06-20T08:25:13.490976,14.11576136,.0011727,19.9729,40.3181,238.5935,283.9086,0,U,37841,999,75826,.47312E-4,.352E-5,0
PLEIADES 1A,2011-076F,2026-06-21T12:40:30.488160,14.58533884,.0001732,98.1970,247.5734,94.5513,30.1518,0,U,38012,999,77262,.9456E-4,.394E-5,0
ZIYUAN 1-02C (ZY 1-02C),2011-079A,2026-06-21T12:53:28.659264,14.38218740,.000529,98.4066,239.7552,301.3280,167.3029,0,U,38038,999,75983,.20616E-3,.583E-5,0
ARIRANG-3 (KOMPSAT-3),2012-025B,2026-06-21T11:32:12.003936,14.62209168,.0006785,98.1172,129.8665,98.6796,261.5175,0,U,38338,999,75197,.66986E-4,.291E-5,0
EXACTVIEW-1 (ADS-1B),2012-039C,2026-06-20T07:55:37.784352,14.24985343,.0011328,98.9781,288.7915,157.6726,202.4948,0,U,38709,999,72315,.57653E-4,.89E-6,0
SPOT 6,2012-047A,2026-06-21T12:28:22.435104,14.58566130,.0001546,98.2113,239.7786,92.3922,267.7455,0,U,38755,999,73368,.12081E-3,.516E-5,0
PLEIADES 1B,2012-068A,2026-06-21T11:16:50.547072,14.58563736,.0001688,98.1941,247.4631,90.3028,269.8364,0,U,39019,999,72147,.12215E-3,.522E-5,0
GOKTURK 2,2012-073A,2026-06-21T11:43:38.053632,14.75545326,.0001389,97.6820,9.7037,58.2802,301.8544,0,U,39030,999,72514,.16886E-4,.68E-6,0
LANDSAT 8,2013-008A,2026-06-20T10:59:52.642752,14.57096364,.0001358,98.2301,241.5547,93.7192,266.4162,0,U,39084,999,69837,.61084E-4,.23E-5,0
SARAL,2013-009A,2026-06-20T11:06:09.955872,14.32856589,.0000619,98.5558,357.9883,282.5589,77.5526,0,U,39086,999,69607,.32654E-4,.45E-6,0
GAOFEN-1,2013-018A,2026-06-21T12:51:18.952992,14.76540302,.0015737,97.9088,244.5158,251.0160,108.9345,0,U,39150,999,70888,.51792E-4,.311E-5,0
VNREDSAT 1,2013-021B,2026-06-21T11:03:21.246912,14.64861023,.0001739,97.9074,225.7135,88.4523,271.6880,0,U,39160,999,70091,.10708E-3,.527E-5,0
ARIRANG-5 (KOMPSAT-5),2013-042A,2026-06-21T11:44:27.062304,15.04495629,.0005354,97.6201,359.1288,111.2798,248.9000,0,U,39227,999,70450,.21075E-4,.234E-5,0
SKYSAT-A,2013-066C,2026-06-19T16:54:18.879552,15.12985941,.0019939,97.3811,220.0216,308.1910,51.7525,0,U,39418,999,68886,.12045578E-3,.2071E-4,0
DUBAISAT-2,2013-066D,2026-06-21T12:14:33.797760,15.10212102,.001191,97.4570,162.5409,26.7745,333.4097,0,U,39419,999,68704,.28495E-3,.4601E-4,0
GPM-CORE,2014-009C,2026-06-20T10:43:19.802208,15.44632575,.0011702,64.9722,297.2099,252.7565,107.2295,0,U,39574,999,69831,.21311E-3,.9759E-4,0
SENTINEL-1A,2014-016A,2026-06-21T11:33:45.543168,14.59201426,.0001391,98.1781,179.9521,81.1545,278.9812,0,U,39634,999,65064,.10548E-3,.452E-5,0
KAZEOSAT 1,2014-024A,2026-06-21T12:45:38.134368,14.42082456,.0001291,98.3200,244.8715,77.1135,283.0199,0,U,39731,999,63918,.13252E-3,.393E-5,0
ALOS-2,2014-029A,2026-06-21T12:50:50.249184,14.79467590,.0001658,97.9218,269.6368,90.7283,269.4118,0,U,39766,999,65222,.92443E-4,.639E-5,0
