DUBAISAT-1              
1 35682U 09041B   26171.34499823  .00000558  00000+0  90158-4 0  9991
2 35682  98.0056 304.5680 0011555  64.7840 295.4565 14.75126564905568
OCEANSAT-2              
1 35931U 09051A   26172.48869671 -.00000206  00000+0 -11482-3 0  9991
2 35931  98.2323 158.9111 0015564 222.9325 137.0628 13.99663293879936
WORLDVIEW-2 (WV-2)      
1 35946U 09055A   26171.43434226  .00000074  00000+0  39024-4 0  9993
2 35946  98.4736 244.8392 0003904 197.1110 162.9946 14.37900227876119
SMOS                    
1 36036U 09059A   26171.45582071  .00000169  00000+0  67815-4 0  9996
2 36036  98.4426 358.7428 0001324  87.9186 272.2154 14.39774008873924
YAOGAN-7                
1 36110U 09069A   26171.40605635  .00000340  00000+0  54142-4 0  9997
2 36110  98.0068  57.2532 0025376  31.7797 328.4939 14.78012533890105
TANDEM-X                
1 36605U 10030A   26170.49711645  .00000194  00000+0  12414-4 0  9996
2 36605  97.4451 178.1721 0001891  87.7400 272.4051 15.19151444886990
CARTOSAT-2B             
1 36795U 10035A   26172.46754234  .00000542  00000+0  81042-4 0  9991
2 36795  97.9947 222.9908 0011566 169.8570 190.2877 14.78666375860487
YAOGAN-10               
1 36834U 10038A   26172.54471892  .00001149  00000+0  13987-3 0  9999
2 36834  97.8975 195.9149 0001741  85.2540  66.2465 14.85360559857854
COSMO-SKYMED 4          
1 37216U 10060A   26172.49438603  .00000303  00000+0  44605-4 0  9999
2 37216  97.8893 356.0310 0001447  86.3912 273.7467 14.82157004845205
RESOURCESAT-2           
1 37387U 11015A   26171.46738348  .00000002  00000+0  20960-4 0  9998
2 37387  98.7643 238.8867 0010271 244.9511 115.0601 14.21600287786642
HAIYANG-2A              
1 37781U 11043A   26172.47922443  .00000225  00000+0  28474-3 0  9994
2 37781  99.3397 175.0606 0005810  82.6456 277.5353 13.74333314747246
RASAT                   
1 37791U 11044D   26172.52968278  .00000225  00000+0  47487-4 0  9994
2 37791  98.0574 263.8605 0020577 174.9075 196.0613 14.68169242793824
SRMSAT                  
1 37841U 11058D   26171.35085059  .00000352  00000+0  47312-4 0  9990
2 37841  19.9729  40.3181 0011727 238.5935 283.9086 14.11576136758261
PLEIADES 1A             
1 38012U 11076F   26172.52813065  .00000394  00000+0  94560-4 0  9990
2 38012  98.1970 247.5734 0001732  94.5513  30.1518 14.58533884772623
ZIYUAN 1-02C (ZY 1-02C) 
1 38038U 11079A   26172.53713726  .00000583  00000+0  20616-3 0  9995
2 38038  98.4066 239.7552 0005290 301.3280 167.3029 14.38218740759831
ARIRANG-3 (KOMPSAT-3)   
1 38338U 12025B   26172.48069449  .00000291  00000+0  66986-4 0  9997
2 38338  98.1172 129.8665 0006785  98.6796 261.5175 14.62209168751978
EXACTVIEW-1 (ADS-1B)    
1 38709U 12039C   26171.33029843  .00000089  00000+0  57653-4 0  9997
2 38709  98.9781 288.7915 0011328 157.6726 202.4948 14.24985343723150
SPOT 6                  
1 38755U 12047A   26172.51970411  .00000516  00000+0  12081-3 0  9994
2 38755  98.2113 239.7786 0001546  92.3922 267.7455 14.58566130733681
PLEIADES 1B             
1 39019U 12068A   26172.47002948  .00000522  00000+0  12215-3 0  9993
2 39019  98.1941 247.4631 0001688  90.3028 269.8364 14.58563736721475
GOKTURK 2               
1 39030U 12073A   26172.48863488  .00000068  00000+0  16886-4 0  9991
2 39030  97.6820   9.7037 0001389  58.2802 301.8544 14.75545326725147
LANDSAT 8               
1 39084U 13008A   26171.45824818  .00000230  00000+0  61084-4 0  9990
2 39084  98.2301 241.5547 0001358  93.7192 266.4162 14.57096364698370
SARAL                   
1 39086U 13009A   26171.46261523  .00000045  00000+0  32654-4 0  9997
2 39086  98.5558 357.9883 0000619 282.5589  77.5526 14.32856589696077
GAOFEN-1                
1 39150U 13018A   26172.53563603  .00000311  00000+0  51792-4 0  9992
2 39150  97.9088 244.5158 0015737 251.0160 108.9345 14.76540302708881
VNREDSAT 1              
1 39160U 13021B   26172.46066258  .00000527  00000+0  10708-3 0  9993
2 39160  97.9074 225.7135 0001739  88.4523 271.6880 14.64861023700916
ARIRANG-5 (KOMPSAT-5)   
1 39227U 13042A   26172.48920211  .00000234  00000+0  21075-4 0  9995
2 39227  97.6201 359.1288 0005354 111.2798 248.9000 15.04495629704506
SKYSAT-A                
1 39418U 13066C   26170.70438518  .00002071  00000+0  12046-3 0  9998
2 39418  97.3811 220.0216 0019939 308.1910  51.7525 15.12985941688868
DUBAISAT-2              
1 39419U 13066D   26172.51011340  .00004601  00000+0  28495-3 0  9996
2 39419  97.4570 162.5409 0011910  26.7745 333.4097 15.10212102687049
GPM-CORE                
1 39574U 14009C   26171.44675697  .00009759  00000+0  21311-3 0  9997
2 39574  64.9722 297.2099 0011702 252.7565 107.2295 15.44632575698316
SENTINEL-1A             
1 39634U 14016A   26172.48177712  .00000452  00000+0  10548-3 0  9993
2 39634  98.1781 179.9521 0001391  81.1545 278.9812 14.59201426650645
KAZEOSAT 1              
1 39731U 14024A   26172.53169137  .00000393  00000+0  13252-3 0  9997
2 39731  98.3200 244.8715 0001291  77.1135 283.0199 14.42082456639180
ALOS-2                  
1 39766U 14029A   26172.53530381  .00000639  00000+0  92443-4 0  9996
2 39766  97.9218 269.6368 0001658  90.7283 269.4118 14.79467590652228
